[{"OBJECT_NAME":"ESEO","OBJECT_ID":"2018-099AL","EPOCH":"2026-03-09T15:43:37.559712","MEAN_MOTION":15.03914518,"ECCENTRICITY":0.00110626,"INCLINATION":97.4113,"RA_OF_ASC_NODE":110.2601,"ARG_OF_PERICENTER":317.6,"MEAN_ANOMALY":42.4371,"EPHEMERIS_TYPE":0,"CLASSIFICATION_TYPE":"U","NORAD_CAT_ID":43792,"ELEMENT_SET_NO":999,"REV_AT_EPOCH":39684,"BSTAR":0.00020934561,"MEAN_MOTION_DOT":2.831e-5,"MEAN_MOTION_DDOT":0},{"OBJECT_NAME":"STARLINK-34348","OBJECT_ID":"2025-112G","EPOCH":"2026-03-09T17:26:56.618016","MEAN_MOTION":15.05647912,"ECCENTRICITY":0.00019586,"INCLINATION":97.6022,"RA_OF_ASC_NODE":121.5489,"ARG_OF_PERICENTER":82.4342,"MEAN_ANOMALY":277.7107,"EPHEMERIS_TYPE":0,"CLASSIFICATION_TYPE":"U","NORAD_CAT_ID":64152,"ELEMENT_SET_NO":999,"REV_AT_EPOCH":4331,"BSTAR":0.00035209276,"MEAN_MOTION_DOT":5.023e-5,"MEAN_MOTION_DDOT":0}]
