ESEO                    
1 43792U 18099AL  26068.65529582  .00002831  00000+0  20935-3 0  9991
2 43792  97.4113 110.2601 0011063 317.6000  42.4371 15.03914518396849
STARLINK-34348          
1 64152U 25112G   26068.72704418  .00005023  00000+0  35209-3 0  9995
2 64152  97.6022 121.5489 0001959  82.4342 277.7107 15.05647912 43315
